[{"OBJECT_NAME":"TEVEL2-1","OBJECT_ID":"2025-052H","EPOCH":"2026-03-09T15:32:51.927072","MEAN_MOTION":15.30341923,"ECCENTRICITY":0.0004767,"INCLINATION":97.3991,"RA_OF_ASC_NODE":324.7682,"ARG_OF_PERICENTER":104.8919,"MEAN_ANOMALY":255.2849,"EPHEMERIS_TYPE":0,"CLASSIFICATION_TYPE":"U","NORAD_CAT_ID":63217,"ELEMENT_SET_NO":999,"REV_AT_EPOCH":5485,"BSTAR":0.000706,"MEAN_MOTION_DOT":0.00020683,"MEAN_MOTION_DDOT":0},{"OBJECT_NAME":"STARLINK-34308","OBJECT_ID":"2025-120C","EPOCH":"2026-03-09T12:48:49.803264","MEAN_MOTION":15.30200209,"ECCENTRICITY":0.00014416,"INCLINATION":53.1588,"RA_OF_ASC_NODE":117.3241,"ARG_OF_PERICENTER":64.5861,"MEAN_ANOMALY":295.5289,"EPHEMERIS_TYPE":0,"CLASSIFICATION_TYPE":"U","NORAD_CAT_ID":64258,"ELEMENT_SET_NO":999,"REV_AT_EPOCH":4384,"BSTAR":0.00079508208,"MEAN_MOTION_DOT":0.00023263,"MEAN_MOTION_DDOT":0}]
