TEVEL2-1                
1 63217U 25052H   26068.64782323  .00020683  00000+0  70600-3 0  9994
2 63217  97.3991 324.7682 0004767 104.8919 255.2849 15.30341923 54855
STARLINK-34308          
1 64258U 25120C   26068.53390976  .00023263  00000+0  79508-3 0  9996
2 64258  53.1588 117.3241 0001441  64.5861 295.5289 15.30200209 43847
